[{"OBJECT_NAME":"IRIDIUM 169","OBJECT_ID":"2019-002E","EPOCH":"2026-03-09T22:14:17.748384","MEAN_MOTION":14.38612437,"ECCENTRICITY":0.00014131,"INCLINATION":86.4172,"RA_OF_ASC_NODE":66.6873,"ARG_OF_PERICENTER":82.9186,"MEAN_ANOMALY":277.2173,"EPHEMERIS_TYPE":0,"CLASSIFICATION_TYPE":"U","NORAD_CAT_ID":43926,"ELEMENT_SET_NO":999,"REV_AT_EPOCH":37595,"BSTAR":6.3248636e-5,"MEAN_MOTION_DOT":2.13e-6,"MEAN_MOTION_DDOT":0},{"OBJECT_NAME":"IRIDIUM 33 DEB","OBJECT_ID":"1997-051VQ","EPOCH":"2026-03-07T12:09:12.552192","MEAN_MOTION":14.43606913,"ECCENTRICITY":0.00246748,"INCLINATION":86.3489,"RA_OF_ASC_NODE":357.6566,"ARG_OF_PERICENTER":310.3764,"MEAN_ANOMALY":49.5283,"EPHEMERIS_TYPE":0,"CLASSIFICATION_TYPE":"U","NORAD_CAT_ID":36083,"ELEMENT_SET_NO":999,"REV_AT_EPOCH":86672,"BSTAR":0.00088278648,"MEAN_MOTION_DOT":3.021e-5,"MEAN_MOTION_DDOT":0}]
